OBJECT_NAME,OBJECT_ID,EPOCH,MEAN_MOTION,ECCENTRICITY,INCLINATION,RA_OF_ASC_NODE,ARG_OF_PERICENTER,MEAN_ANOMALY,EPHEMERIS_TYPE,CLASSIFICATION_TYPE,NORAD_CAT_ID,ELEMENT_SET_NO,REV_AT_EPOCH,BSTAR,MEAN_MOTION_DOT,MEAN_MOTION_DDOT
STARLINK-38024,2026-159A,2026-07-17T14:00:01.999872,15.89593493,.0001613,97.2860,37.3731,78.2209,125.2578,0,U,69975,999,223,-.6889454E-2,-.1988504E-1,.10524326E-2
STARLINK-37993,2026-159B,2026-07-17T14:00:01.999872,15.89811675,.00016258,97.2858,37.3736,78.4775,126.9421,0,U,69976,999,223,-.6718734E-2,-.1960837E-1,.10273741E-2
STARLINK-37995,2026-159C,2026-07-17T14:00:01.999872,15.90020000,.00016036,97.2859,37.3741,78.2454,129.1779,0,U,69977,999,223,-.65850324E-2,-.1942208E-1,.10112627E-2
STARLINK-38057,2026-159D,2026-07-17T14:00:01.999872,15.90221855,.00015431,97.2860,37.3748,78.8799,130.6443,0,U,69978,999,223,-.64633905E-2,-.1925941E-1,.9974701E-3
STARLINK-38063,2026-159E,2026-07-17T14:00:01.999872,15.90421750,.00015735,97.2860,37.3759,79.0314,132.6175,0,U,69979,999,223,-.63623938E-2,-.1915164E-1,.98902418E-3
STARLINK-38093,2026-159F,2026-07-17T14:00:01.999872,15.90607399,.00015419,97.2860,37.3766,80.5059,133.2874,0,U,69980,999,223,-.62120043E-2,-.1887813E-1,.96456059E-3
STARLINK-38050,2026-159G,2026-07-17T14:00:01.999872,15.90799217,.0001575,97.2860,37.3775,77.6757,138.1270,0,U,69981,999,223,-.61262193E-2,-.1879994E-1,.958949E-3
STARLINK-38065,2026-159H,2026-07-17T14:00:01.999872,15.90983547,.00015861,97.2860,37.3785,77.9682,139.8937,0,U,69982,999,223,-.60004268E-2,-.1858927E-1,.94070757E-3
STARLINK-38077,2026-159J,2026-07-17T14:00:01.999872,15.91162026,.00015173,97.2861,37.3792,77.6981,142.1886,0,U,69983,999,223,-.58918012E-2,-.1842077E-1,.92650732E-3
STARLINK-38068,2026-159K,2026-07-17T14:00:01.999872,15.91345005,.00014882,97.2860,37.3799,82.7060,139.0107,0,U,69984,999,223,-.5796049E-2,-.1829237E-1,.91617362E-3
STARLINK-38089,2026-159L,2026-07-17T14:00:01.999872,15.91521223,.00015212,97.2857,37.3809,78.8132,144.9554,0,U,69985,999,223,-.57078135E-2,-.1817793E-1,.907119E-3
STARLINK-38073,2026-159M,2026-07-17T14:00:01.999872,15.91695826,.00015087,97.2859,37.3815,78.5328,147.1508,0,U,69986,999,223,-.56240999E-2,-.1807304E-1,.89896295E-3
STARLINK-38099,2026-159N,2026-07-17T14:00:01.999872,15.91863425,.00014798,97.2859,37.3822,78.2368,149.2796,0,U,69987,999,223,-.55203625E-2,-.1789458E-1,.8839782E-3
STARLINK-38064,2026-159P,2026-07-17T14:00:01.999872,15.92196289,.0001448,97.2859,37.3837,77.6436,153.6632,0,U,69988,999,223,-.53301391E-2,-.1757939E-1,.85807429E-3
STARLINK-38080,2026-159Q,2026-07-17T14:00:01.999872,15.92036956,.00014868,97.2859,37.3831,77.2213,152.2204,0,U,69989,999,223,-.5452985E-2,-.1783493E-1,.88003867E-3
STARLINK-38070,2026-159R,2026-07-17T14:00:01.999872,15.92359845,.00014283,97.2857,37.3844,78.9014,154.3335,0,U,69990,999,223,-.5271244E-2,-.1753265E-1,.85524932E-3
STARLINK-38042,2026-159S,2026-07-17T14:00:01.999872,15.92515337,.00014168,97.2857,37.3850,80.0654,154.8430,0,U,69991,999,223,-.51692615E-2,-.1733421E-1,.83863733E-3
STARLINK-38071,2026-159T,2026-07-17T14:00:01.999872,15.92673029,.00014318,97.2860,37.3859,79.2080,157.4159,0,U,69992,999,223,-.50827206E-2,-.1718524E-1,.82660008E-3
STARLINK-38082,2026-159U,2026-07-17T14:00:01.999872,15.92826124,.00013855,97.2859,37.3865,80.6874,157.6703,0,U,69993,999,223,-.5013666E-2,-.1708767E-1,.81916661E-3
STARLINK-38090,2026-159V,2026-07-17T14:00:01.999872,15.92981470,.00014051,97.2859,37.3874,80.4515,159.6619,0,U,69994,999,223,-.49382288E-2,-.1696814E-1,.80982341E-3
STARLINK-38084,2026-159W,2026-07-17T14:00:01.999872,15.93135612,.00013896,97.2858,37.3881,78.8295,163.1536,0,U,69995,999,223,-.48942199E-2,-.1695226E-1,.80969151E-3
STARLINK-38085,2026-159X,2026-07-17T14:00:01.999872,15.93280595,.00013579,97.2859,37.3889,79.7434,163.8631,0,U,69996,999,223,-.48166732E-2,-.1681158E-1,.79842594E-3
STARLINK-38091,2026-159Y,2026-07-17T14:00:01.999872,15.93428731,.00013977,97.2859,37.3896,74.2102,171.2100,0,U,69997,999,223,-.47504283E-2,-.1671017E-1,.79069772E-3
STARLINK-38086,2026-159Z,2026-07-17T14:00:01.999872,15.93572707,.00013405,97.2861,37.3904,77.2555,169.8689,0,U,69998,999,223,-.46906856E-2,-.1662539E-1,.78441649E-3
