STARLINK-38024          
1 69975U 26159A   26198.58335648 -.01988504  10524-2 -68895-2 0  9996
2 69975  97.2860  37.3731 0001613  78.2209 125.2578 15.89593493  2236
STARLINK-37993          
1 69976U 26159B   26198.58335648 -.01960837  10274-2 -67187-2 0  9991
2 69976  97.2858  37.3736 0001625  78.4775 126.9421 15.89811675  2232
STARLINK-37995          
1 69977U 26159C   26198.58335648 -.01942208  10113-2 -65850-2 0  9991
2 69977  97.2859  37.3741 0001603  78.2454 129.1779 15.90020000  2235
STARLINK-38057          
1 69978U 26159D   26198.58335648 -.01925941  99747-3 -64634-2 0  9997
2 69978  97.2860  37.3748 0001543  78.8799 130.6443 15.90221855  2232
STARLINK-38063          
1 69979U 26159E   26198.58335648 -.01915164  98902-3 -63624-2 0  9994
2 69979  97.2860  37.3759 0001573  79.0314 132.6175 15.90421750  2234
STARLINK-38093          
1 69980U 26159F   26198.58335648 -.01887813  96456-3 -62120-2 0  9997
2 69980  97.2860  37.3766 0001541  80.5059 133.2874 15.90607399  2230
STARLINK-38050          
1 69981U 26159G   26198.58335648 -.01879994  95895-3 -61262-2 0  9991
2 69981  97.2860  37.3775 0001575  77.6757 138.1270 15.90799217  2235
STARLINK-38065          
1 69982U 26159H   26198.58335648 -.01858927  94071-3 -60004-2 0  9993
2 69982  97.2860  37.3785 0001586  77.9682 139.8937 15.90983547  2238
STARLINK-38077          
1 69983U 26159J   26198.58335648 -.01842077  92651-3 -58918-2 0  9996
2 69983  97.2861  37.3792 0001517  77.6981 142.1886 15.91162026  2233
STARLINK-38068          
1 69984U 26159K   26198.58335648 -.01829237  91617-3 -57960-2 0  9997
2 69984  97.2860  37.3799 0001488  82.7060 139.0107 15.91345005  2233
STARLINK-38089          
1 69985U 26159L   26198.58335648 -.01817793  90712-3 -57078-2 0  9997
2 69985  97.2857  37.3809 0001521  78.8132 144.9554 15.91521223  2235
STARLINK-38073          
1 69986U 26159M   26198.58335648 -.01807304  89896-3 -56241-2 0  9997
2 69986  97.2859  37.3815 0001508  78.5328 147.1508 15.91695826  2239
STARLINK-38099          
1 69987U 26159N   26198.58335648 -.01789458  88398-3 -55204-2 0  9991
2 69987  97.2859  37.3822 0001479  78.2368 149.2796 15.91863425  2230
STARLINK-38064          
1 69988U 26159P   26198.58335648 -.01757939  85807-3 -53301-2 0  9999
2 69988  97.2859  37.3837 0001448  77.6436 153.6632 15.92196289  2238
STARLINK-38080          
1 69989U 26159Q   26198.58335648 -.01783493  88004-3 -54530-2 0  9991
2 69989  97.2859  37.3831 0001486  77.2213 152.2204 15.92036956  2238
STARLINK-38070          
1 69990U 26159R   26198.58335648 -.01753265  85525-3 -52712-2 0  9992
2 69990  97.2857  37.3844 0001428  78.9014 154.3335 15.92359845  2238
STARLINK-38042          
1 69991U 26159S   26198.58335648 -.01733421  83864-3 -51693-2 0  9996
2 69991  97.2857  37.3850 0001416  80.0654 154.8430 15.92515337  2238
STARLINK-38071          
1 69992U 26159T   26198.58335648 -.01718524  82660-3 -50827-2 0  9995
2 69992  97.2860  37.3859 0001431  79.2080 157.4159 15.92673029  2232
STARLINK-38082          
1 69993U 26159U   26198.58335648 -.01708767  81917-3 -50137-2 0  9992
2 69993  97.2859  37.3865 0001385  80.6874 157.6703 15.92826124  2236
STARLINK-38090          
1 69994U 26159V   26198.58335648 -.01696814  80982-3 -49382-2 0  9993
2 69994  97.2859  37.3874 0001405  80.4515 159.6619 15.92981470  2234
STARLINK-38084          
1 69995U 26159W   26198.58335648 -.01695226  80969-3 -48942-2 0  9996
2 69995  97.2858  37.3881 0001389  78.8295 163.1536 15.93135612  2237
STARLINK-38085          
1 69996U 26159X   26198.58335648 -.01681158  79843-3 -48167-2 0  9994
2 69996  97.2859  37.3889 0001357  79.7434 163.8631 15.93280595  2231
STARLINK-38091          
1 69997U 26159Y   26198.58335648 -.01671017  79070-3 -47504-2 0  9994
2 69997  97.2859  37.3896 0001397  74.2102 171.2100 15.93428731  2236
STARLINK-38086          
1 69998U 26159Z   26198.58335648 -.01662539  78442-3 -46907-2 0  9992
2 69998  97.2861  37.3904 0001340  77.2555 169.8689 15.93572707  2231
